{"fetched_at":"2026-07-19T17:31:47.835Z","source":"https://celestrak.org/NORAD/elements/gp.php?NAME=O3B&FORMAT=JSON","constellation":"o3b-mpower","records":[{"OBJECT_NAME":"O3B MPOWER F1","OBJECT_ID":"2022-174A","EPOCH":"2026-07-19T03:06:15.496992","CLASSIFICATION_TYPE":"U","MEAN_MOTION":5.00114767,"ECCENTRICITY":0.00066613,"INCLINATION":0.0488,"RA_OF_ASC_NODE":339.1429,"ARG_OF_PERICENTER":148.8629,"MEAN_ANOMALY":238.1453,"EPHEMERIS_TYPE":0,"NORAD_CAT_ID":54755,"ELEMENT_SET_NO":999,"REV_AT_EPOCH":6695,"BSTAR":0,"MEAN_MOTION_DOT":-2.4e-7,"MEAN_MOTION_DDOT":0},{"OBJECT_NAME":"O3B MPOWER F2","OBJECT_ID":"2022-174B","EPOCH":"2026-07-19T02:13:26.961024","CLASSIFICATION_TYPE":"U","MEAN_MOTION":5.00114912,"ECCENTRICITY":0.00057778,"INCLINATION":0.0447,"RA_OF_ASC_NODE":339.7908,"ARG_OF_PERICENTER":132.1361,"MEAN_ANOMALY":248.131,"EPHEMERIS_TYPE":0,"NORAD_CAT_ID":54756,"ELEMENT_SET_NO":999,"REV_AT_EPOCH":6704,"BSTAR":0,"MEAN_MOTION_DOT":-2.4e-7,"MEAN_MOTION_DDOT":0},{"OBJECT_NAME":"O3B MPOWER F4","OBJECT_ID":"2023-059A","EPOCH":"2026-07-18T18:10:14.886336","CLASSIFICATION_TYPE":"U","MEAN_MOTION":5.00115375,"ECCENTRICITY":0.00077346,"INCLINATION":0.0628,"RA_OF_ASC_NODE":349.4037,"ARG_OF_PERICENTER":130.7285,"MEAN_ANOMALY":239.9408,"EPHEMERIS_TYPE":0,"NORAD_CAT_ID":56367,"ELEMENT_SET_NO":999,"REV_AT_EPOCH":6018,"BSTAR":0,"MEAN_MOTION_DOT":-2.4e-7,"MEAN_MOTION_DDOT":0},{"OBJECT_NAME":"O3B MPOWER F3","OBJECT_ID":"2023-059B","EPOCH":"2026-07-18T23:45:47.380608","CLASSIFICATION_TYPE":"U","MEAN_MOTION":5.00116435,"ECCENTRICITY":0.00066571,"INCLINATION":0.0635,"RA_OF_ASC_NODE":348.5289,"ARG_OF_PERICENTER":125.1828,"MEAN_ANOMALY":246.3546,"EPHEMERIS_TYPE":0,"NORAD_CAT_ID":56368,"ELEMENT_SET_NO":999,"REV_AT_EPOCH":5632,"BSTAR":0,"MEAN_MOTION_DOT":-2.4e-7,"MEAN_MOTION_DDOT":0},{"OBJECT_NAME":"O3B MPOWER F5","OBJECT_ID":"2023-175A","EPOCH":"2026-07-19T02:11:13.867872","CLASSIFICATION_TYPE":"U","MEAN_MOTION":5.00115846,"ECCENTRICITY":0.00055528,"INCLINATION":0.0528,"RA_OF_ASC_NODE":8.8202,"ARG_OF_PERICENTER":126.8982,"MEAN_ANOMALY":224.3225,"EPHEMERIS_TYPE":0,"NORAD_CAT_ID":58346,"ELEMENT_SET_NO":999,"REV_AT_EPOCH":5103,"BSTAR":0,"MEAN_MOTION_DOT":-2.4e-7,"MEAN_MOTION_DDOT":0},{"OBJECT_NAME":"O3B MPOWER F6","OBJECT_ID":"2023-175B","EPOCH":"2026-07-19T04:35:55.183488","CLASSIFICATION_TYPE":"U","MEAN_MOTION":5.00115771,"ECCENTRICITY":0.00044331,"INCLINATION":0.0543,"RA_OF_ASC_NODE":0.4557,"ARG_OF_PERICENTER":116.194,"MEAN_ANOMALY":243.3922,"EPHEMERIS_TYPE":0,"NORAD_CAT_ID":58347,"ELEMENT_SET_NO":999,"REV_AT_EPOCH":4995,"BSTAR":0,"MEAN_MOTION_DOT":-2.4e-7,"MEAN_MOTION_DDOT":0},{"OBJECT_NAME":"O3B MPOWER F7","OBJECT_ID":"2024-244A","EPOCH":"2026-07-19T06:11:32.581536","CLASSIFICATION_TYPE":"U","MEAN_MOTION":5.00115306,"ECCENTRICITY":0.00059276,"INCLINATION":0.0656,"RA_OF_ASC_NODE":342.0394,"ARG_OF_PERICENTER":131.3657,"MEAN_ANOMALY":246.6538,"EPHEMERIS_TYPE":0,"NORAD_CAT_ID":62362,"ELEMENT_SET_NO":999,"REV_AT_EPOCH":2812,"BSTAR":0,"MEAN_MOTION_DOT":-2.4e-7,"MEAN_MOTION_DDOT":0},{"OBJECT_NAME":"O3B MPOWER F8","OBJECT_ID":"2024-244B","EPOCH":"2026-07-18T10:12:35.017056","CLASSIFICATION_TYPE":"U","MEAN_MOTION":5.00115021,"ECCENTRICITY":0.00057238,"INCLINATION":0.0148,"RA_OF_ASC_NODE":8.1103,"ARG_OF_PERICENTER":97.376,"MEAN_ANOMALY":254.5731,"EPHEMERIS_TYPE":0,"NORAD_CAT_ID":62363,"ELEMENT_SET_NO":999,"REV_AT_EPOCH":2243,"BSTAR":0,"MEAN_MOTION_DOT":-2.5e-7,"MEAN_MOTION_DDOT":0},{"OBJECT_NAME":"O3B MPOWER F9","OBJECT_ID":"2025-153A","EPOCH":"2026-07-19T03:48:00.878400","CLASSIFICATION_TYPE":"U","MEAN_MOTION":5.00115675,"ECCENTRICITY":0.00067666,"INCLINATION":0.0617,"RA_OF_ASC_NODE":4.9387,"ARG_OF_PERICENTER":130.5337,"MEAN_ANOMALY":224.5786,"EPHEMERIS_TYPE":0,"NORAD_CAT_ID":64866,"ELEMENT_SET_NO":999,"REV_AT_EPOCH":2116,"BSTAR":0,"MEAN_MOTION_DOT":-2.4e-7,"MEAN_MOTION_DDOT":0},{"OBJECT_NAME":"O3B MPOWER F10","OBJECT_ID":"2025-153B","EPOCH":"2026-07-18T17:23:27.356352","CLASSIFICATION_TYPE":"U","MEAN_MOTION":5.00114893,"ECCENTRICITY":0.00025052,"INCLINATION":0.0587,"RA_OF_ASC_NODE":1.6364,"ARG_OF_PERICENTER":246.0743,"MEAN_ANOMALY":112.259,"EPHEMERIS_TYPE":0,"NORAD_CAT_ID":64867,"ELEMENT_SET_NO":999,"REV_AT_EPOCH":2360,"BSTAR":0,"MEAN_MOTION_DOT":-2.4e-7,"MEAN_MOTION_DDOT":0}]}
