O3B MPOWER F1           
1 54755U 22174A   26200.12934603 -.00000024  00000+0  00000+0 0  9995
2 54755   0.0488 339.1429 0006661 148.8629 238.1453  5.00114767 66959
O3B MPOWER F2           
1 54756U 22174B   26200.09267316 -.00000024  00000+0  00000+0 0  9992
2 54756   0.0447 339.7908 0005777 132.1361 248.1310  5.00114912 67045
O3B MPOWER F4           
1 56367U 23059A   26199.75711674 -.00000024  00000+0  00000+0 0  9996
2 56367   0.0628 349.4037 0007734 130.7285 239.9408  5.00115375 60189
O3B MPOWER F3           
1 56368U 23059B   26199.99013172 -.00000024  00000+0  00000+0 0  9991
2 56368   0.0635 348.5289 0006657 125.1828 246.3546  5.00116435 56325
O3B MPOWER F5           
1 58346U 23175A   26200.09113273 -.00000024  00000+0  00000+0 0  9995
2 58346   0.0528   8.8202 0005552 126.8982 224.3225  5.00115846 51035
O3B MPOWER F6           
1 58347U 23175B   26200.19161092 -.00000024  00000+0  00000+0 0  9999
2 58347   0.0543   0.4557 0004433 116.1940 243.3922  5.00115771 49957
O3B MPOWER F7           
1 62362U 24244A   26200.25801599 -.00000024  00000+0  00000+0 0  9999
2 62362   0.0656 342.0394 0005927 131.3657 246.6538  5.00115306 28120
O3B MPOWER F8           
1 62363U 24244B   26199.42540529 -.00000025  00000+0  00000+0 0  9990
2 62363   0.0148   8.1103 0005723  97.3760 254.5731  5.00115021 22430
O3B MPOWER F9           
1 64866U 25153A   26200.15834350 -.00000024  00000+0  00000+0 0  9990
2 64866   0.0617   4.9387 0006766 130.5337 224.5786  5.00115675 21168
O3B MPOWER F10          
1 64867U 25153B   26199.72462218 -.00000024  00000+0  00000+0 0  9991
2 64867   0.0587   1.6364 0002505 246.0743 112.2590  5.00114893 23603
